IRIDIUM 57 [-]          
1 25273U 98019B   23272.46201401  .00000637  00000+0  21740-3 0  9992
2 25273  86.3967  47.6798 0002107  92.1642 267.9795 14.34912013334884
IRIDIUM 63 [-]          
1 25286U 98021B   23272.58084687  .00000652  00000+0  22028-3 0  9994
2 25286  86.4033 344.6025 0002333  96.5143 263.6319 14.35422408333925
IRIDIUM 69 [-]          
1 25319U 98026A   23272.64636214  .00000962  00000+0  30199-3 0  9994
2 25319  86.4046 359.7056 0000596   6.4518 353.6688 14.39584742333127
IRIDIUM 71 [-]          
1 25320U 98026B   23272.28829628  .00000798  00000+0  24777-3 0  9991
2 25320  86.4038 354.6949 0002814  44.6893 315.4533 14.39921830333342
IRIDIUM 73 [-]          
1 25344U 98032C   23272.60017721  .00000777  00000+0  19545-3 0  9997
2 25344  86.4403 312.4335 0001769  79.5347 280.6057 14.50038650340012
IRIDIUM 82 [-]          
1 25467U 98051A   23272.38911429  .00016505  00000+0  97347-3 0  9999
2 25467  86.3949  48.7961 0149544  96.7792 265.0483 15.02394614329082
IRIDIUM 2 [-]           
1 25527U 98066A   23272.67576759  .00038136  00000+0  93497-3 0  9993
2 25527  85.5151 108.0003 0003481 248.9682 111.1199 15.40555700366735
